[{"OBJECT_NAME":"SL-8 R/B","OBJECT_ID":"1979-089B","EPOCH":"2026-03-14T17:44:42.203904","MEAN_MOTION":14.42354606,"ECCENTRICITY":0.00170985,"INCLINATION":74.0667,"RA_OF_ASC_NODE":81.6947,"ARG_OF_PERICENTER":253.8692,"MEAN_ANOMALY":106.0582,"EPHEMERIS_TYPE":0,"CLASSIFICATION_TYPE":"U","NORAD_CAT_ID":11574,"ELEMENT_SET_NO":999,"REV_AT_EPOCH":43683,"BSTAR":0.00011656552,"MEAN_MOTION_DOT":3.59e-6,"MEAN_MOTION_DDOT":0},{"OBJECT_NAME":"SL-14 R/B","OBJECT_ID":"1980-005B","EPOCH":"2026-03-14T21:29:25.556352","MEAN_MOTION":14.90936842,"ECCENTRICITY":0.00165971,"INCLINATION":82.5135,"RA_OF_ASC_NODE":302.298,"ARG_OF_PERICENTER":141.6716,"MEAN_ANOMALY":218.5687,"EPHEMERIS_TYPE":0,"CLASSIFICATION_TYPE":"U","NORAD_CAT_ID":11672,"ELEMENT_SET_NO":999,"REV_AT_EPOCH":47726,"BSTAR":5.7772614e-5,"MEAN_MOTION_DOT":5.97e-6,"MEAN_MOTION_DDOT":0},{"OBJECT_NAME":"SL-8 R/B","OBJECT_ID":"1981-003B","EPOCH":"2026-03-14T20:02:20.964768","MEAN_MOTION":15.11198616,"ECCENTRICITY":0.02616409,"INCLINATION":82.9383,"RA_OF_ASC_NODE":285.2663,"ARG_OF_PERICENTER":160.7105,"MEAN_ANOMALY":200.4266,"EPHEMERIS_TYPE":0,"CLASSIFICATION_TYPE":"U","NORAD_CAT_ID":12139,"ELEMENT_SET_NO":999,"REV_AT_EPOCH":31545,"BSTAR":0.00062830428,"MEAN_MOTION_DOT":0.00024627,"MEAN_MOTION_DDOT":0},{"OBJECT_NAME":"SL-3 R/B","OBJECT_ID":"1981-046B","EPOCH":"2026-03-14T21:51:20.686176","MEAN_MOTION":15.42140993,"ECCENTRICITY":0.00191346,"INCLINATION":81.2294,"RA_OF_ASC_NODE":283.474,"ARG_OF_PERICENTER":4.2533,"MEAN_ANOMALY":355.8869,"EPHEMERIS_TYPE":0,"CLASSIFICATION_TYPE":"U","NORAD_CAT_ID":12465,"ELEMENT_SET_NO":999,"REV_AT_EPOCH":43923,"BSTAR":0.00035136591,"MEAN_MOTION_DOT":0.00015183,"MEAN_MOTION_DDOT":0},{"OBJECT_NAME":"SL-3 R/B","OBJECT_ID":"1981-103B","EPOCH":"2026-03-14T21:39:15.661440","MEAN_MOTION":15.21449115,"ECCENTRICITY":0.00124048,"INCLINATION":81.1592,"RA_OF_ASC_NODE":207.3174,"ARG_OF_PERICENTER":267.7935,"MEAN_ANOMALY":92.1876,"EPHEMERIS_TYPE":0,"CLASSIFICATION_TYPE":"U","NORAD_CAT_ID":12904,"ELEMENT_SET_NO":999,"REV_AT_EPOCH":97402,"BSTAR":0.00032553153,"MEAN_MOTION_DOT":7.352e-5,"MEAN_MOTION_DDOT":0},{"OBJECT_NAME":"SL-3 R/B","OBJECT_ID":"1982-013B","EPOCH":"2026-03-14T21:47:46.919616","MEAN_MOTION":15.22072514,"ECCENTRICITY":0.00229548,"INCLINATION":81.176,"RA_OF_ASC_NODE":154.655,"ARG_OF_PERICENTER":159.8353,"MEAN_ANOMALY":200.3791,"EPHEMERIS_TYPE":0,"CLASSIFICATION_TYPE":"U","NORAD_CAT_ID":13068,"ELEMENT_SET_NO":999,"REV_AT_EPOCH":40514,"BSTAR":0.00025123001,"MEAN_MOTION_DOT":5.814e-5,"MEAN_MOTION_DDOT":0},{"OBJECT_NAME":"SL-3 R/B","OBJECT_ID":"1982-039B","EPOCH":"2026-03-14T21:23:40.072128","MEAN_MOTION":15.10115554,"ECCENTRICITY":0.00294889,"INCLINATION":81.1576,"RA_OF_ASC_NODE":209.9648,"ARG_OF_PERICENTER":307.4649,"MEAN_ANOMALY":52.3894,"EPHEMERIS_TYPE":0,"CLASSIFICATION_TYPE":"U","NORAD_CAT_ID":13154,"ELEMENT_SET_NO":999,"REV_AT_EPOCH":38242,"BSTAR":0.00020258348,"MEAN_MOTION_DOT":3.357e-5,"MEAN_MOTION_DDOT":0},{"OBJECT_NAME":"SL-3 R/B","OBJECT_ID":"1982-079B","EPOCH":"2026-03-14T20:25:23.007936","MEAN_MOTION":15.24884589,"ECCENTRICITY":0.00252539,"INCLINATION":81.1483,"RA_OF_ASC_NODE":186.9834,"ARG_OF_PERICENTER":147.5961,"MEAN_ANOMALY":212.683,"EPHEMERIS_TYPE":0,"CLASSIFICATION_TYPE":"U","NORAD_CAT_ID":13403,"ELEMENT_SET_NO":999,"REV_AT_EPOCH":37848,"BSTAR":0.00034770308,"MEAN_MOTION_DOT":8.751e-5,"MEAN_MOTION_DDOT":0},{"OBJECT_NAME":"SL-14 R/B","OBJECT_ID":"1982-092B","EPOCH":"2026-03-14T21:56:44.001888","MEAN_MOTION":14.86671913,"ECCENTRICITY":0.00188153,"INCLINATION":82.5684,"RA_OF_ASC_NODE":136.5128,"ARG_OF_PERICENTER":284.9789,"MEAN_ANOMALY":248.3761,"EPHEMERIS_TYPE":0,"CLASSIFICATION_TYPE":"U","NORAD_CAT_ID":13553,"ELEMENT_SET_NO":999,"REV_AT_EPOCH":32970,"BSTAR":5.2613379e-5,"MEAN_MOTION_DOT":4.93e-6,"MEAN_MOTION_DDOT":0},{"OBJECT_NAME":"SL-3 R/B","OBJECT_ID":"1983-010B","EPOCH":"2026-03-14T17:50:14.690112","MEAN_MOTION":15.46555324,"ECCENTRICITY":0.00176234,"INCLINATION":81.1059,"RA_OF_ASC_NODE":356.0518,"ARG_OF_PERICENTER":34.4116,"MEAN_ANOMALY":325.8266,"EPHEMERIS_TYPE":0,"CLASSIFICATION_TYPE":"U","NORAD_CAT_ID":13819,"ELEMENT_SET_NO":999,"REV_AT_EPOCH":35872,"BSTAR":0.00044296032,"MEAN_MOTION_DOT":0.00022212,"MEAN_MOTION_DDOT":0},{"OBJECT_NAME":"SL-3 R/B","OBJECT_ID":"1983-075B","EPOCH":"2026-03-14T21:22:09.679584","MEAN_MOTION":15.38555041,"ECCENTRICITY":0.00206224,"INCLINATION":97.614,"RA_OF_ASC_NODE":78.665,"ARG_OF_PERICENTER":206.1429,"MEAN_ANOMALY":153.8776,"EPHEMERIS_TYPE":0,"CLASSIFICATION_TYPE":"U","NORAD_CAT_ID":14208,"ELEMENT_SET_NO":999,"REV_AT_EPOCH":33095,"BSTAR":0.00036776271,"MEAN_MOTION_DOT":0.00014018,"MEAN_MOTION_DDOT":0},{"OBJECT_NAME":"COSMOS 1536","OBJECT_ID":"1984-013A","EPOCH":"2026-03-14T13:53:55.635360","MEAN_MOTION":15.23896288,"ECCENTRICITY":0.00124355,"INCLINATION":82.5424,"RA_OF_ASC_NODE":102.9892,"ARG_OF_PERICENTER":264.0292,"MEAN_ANOMALY":95.9528,"EPHEMERIS_TYPE":0,"CLASSIFICATION_TYPE":"U","NORAD_CAT_ID":14699,"ELEMENT_SET_NO":999,"REV_AT_EPOCH":27336,"BSTAR":0.00034209659,"MEAN_MOTION_DOT":8.308e-5,"MEAN_MOTION_DDOT":0},{"OBJECT_NAME":"SL-14 R/B","OBJECT_ID":"1984-027B","EPOCH":"2026-03-14T21:04:28.972704","MEAN_MOTION":14.85982707,"ECCENTRICITY":0.00169727,"INCLINATION":82.5394,"RA_OF_ASC_NODE":240.1454,"ARG_OF_PERICENTER":320.0097,"MEAN_ANOMALY":39.9868,"EPHEMERIS_TYPE":0,"CLASSIFICATION_TYPE":"U","NORAD_CAT_ID":14820,"ELEMENT_SET_NO":999,"REV_AT_EPOCH":24840,"BSTAR":6.6558472e-5,"MEAN_MOTION_DOT":6.07e-6,"MEAN_MOTION_DDOT":0},{"OBJECT_NAME":"SL-8 R/B","OBJECT_ID":"1985-006B","EPOCH":"2026-03-14T22:57:41.066784","MEAN_MOTION":14.37787427,"ECCENTRICITY":0.00182074,"INCLINATION":74.0433,"RA_OF_ASC_NODE":251.4554,"ARG_OF_PERICENTER":167.8816,"MEAN_ANOMALY":308.6977,"EPHEMERIS_TYPE":0,"CLASSIFICATION_TYPE":"U","NORAD_CAT_ID":15483,"ELEMENT_SET_NO":999,"REV_AT_EPOCH":15478,"BSTAR":0.00013784486,"MEAN_MOTION_DOT":3.9e-6,"MEAN_MOTION_DDOT":0},{"OBJECT_NAME":"SL-12 R/B(2)","OBJECT_ID":"1985-042D","EPOCH":"2026-03-14T18:44:21.492384","MEAN_MOTION":14.21983982,"ECCENTRICITY":0.00330593,"INCLINATION":71.1063,"RA_OF_ASC_NODE":76.9715,"ARG_OF_PERICENTER":119.7498,"MEAN_ANOMALY":52.6113,"EPHEMERIS_TYPE":0,"CLASSIFICATION_TYPE":"U","NORAD_CAT_ID":15772,"ELEMENT_SET_NO":999,"REV_AT_EPOCH":11511,"BSTAR":9.460259e-5,"MEAN_MOTION_DOT":1.63e-6,"MEAN_MOTION_DDOT":0},{"OBJECT_NAME":"SL-14 R/B","OBJECT_ID":"1985-069B","EPOCH":"2026-03-14T22:17:14.487360","MEAN_MOTION":14.86439988,"ECCENTRICITY":0.00189499,"INCLINATION":82.5293,"RA_OF_ASC_NODE":20.0075,"ARG_OF_PERICENTER":170.2649,"MEAN_ANOMALY":189.8939,"EPHEMERIS_TYPE":0,"CLASSIFICATION_TYPE":"U","NORAD_CAT_ID":15945,"ELEMENT_SET_NO":999,"REV_AT_EPOCH":17361,"BSTAR":6.6564864e-5,"MEAN_MOTION_DOT":6.14e-6,"MEAN_MOTION_DDOT":0},{"OBJECT_NAME":"SL-16 R/B","OBJECT_ID":"1985-097B","EPOCH":"2026-03-14T21:08:37.037472","MEAN_MOTION":14.16598194,"ECCENTRICITY":0.0009759,"INCLINATION":71.0017,"RA_OF_ASC_NODE":129.6257,"ARG_OF_PERICENTER":253.3501,"MEAN_ANOMALY":280.4196,"EPHEMERIS_TYPE":0,"CLASSIFICATION_TYPE":"U","NORAD_CAT_ID":16182,"ELEMENT_SET_NO":999,"REV_AT_EPOCH":8796,"BSTAR":3.1094287e-5,"MEAN_MOTION_DOT":1.4e-7,"MEAN_MOTION_DDOT":0}]
